CCSDS_OMM_VERS,COMMENT,CREATION_DATE,ORIGINATOR,OBJECT_NAME,OBJECT_ID,CENTER_NAME,REF_FRAME,TIME_SYSTEM,MEAN_ELEMENT_THEORY,EPOCH,MEAN_MOTION,ECCENTRICITY,INCLINATION,RA_OF_ASC_NODE,ARG_OF_PERICENTER,MEAN_ANOMALY,EPHEMERIS_TYPE,CLASSIFICATION_TYPE,NORAD_CAT_ID,ELEMENT_SET_NO,REV_AT_EPOCH,BSTAR,MEAN_MOTION_DOT,MEAN_MOTION_DDOT,SEMIMAJOR_AXIS,PERIOD,APOAPSIS,PERIAPSIS,OBJECT_TYPE,RCS_SIZE,COUNTRY_CODE,LAUNCH_DATE,SITE,DECAY_DATE,FILE,GP_ID,TLE_LINE0,TLE_LINE1,TLE_LINE2
"3.0","GENERATED VIA SPACE-TRACK.ORG API","2025-05-07T20:36:31","18 SPCS","STARLINK-1449","2020-035K","EARTH","TEME","UTC","SGP4","2025-05-07T19:13:56.619264","16.46558964","0.00047880","53.0110","255.6921","318.3624","164.9627","0","U","45666","999","27367","0.00034460000000","0.16123139","0.0000126070000","6526.550","87.455","151.540","145.290","PAYLOAD","LARGE","US","2020-06-04","AFETR","2025-05-07","4721935","287016227","0 STARLINK-1449","1 45666U 20035K   25127.80134976  .16123139  12607-4  34460-3 0  9998","2 45666  53.0110 255.6921 0004788 318.3624 164.9627 16.46558964273677"
"3.0","GENERATED VIA SPACE-TRACK.ORG API","2025-05-09T02:46:56","18 SPCS","FLOCK 4Q 10","2023-174BW","EARTH","TEME","UTC","SGP4","2025-05-07T22:36:58.886208","16.33846744","0.00156510","97.3822","212.2359","248.3526","111.6104","0","U","58324","999","8358","0.00148070000000","0.09725640","0.0000024997000","6560.359","88.136","192.492","171.957","PAYLOAD","MEDIUM","US","2023-11-11","AFWTR","2025-05-13","4723128","287098779","0 FLOCK 4Q 10","1 58324U 23174BW  25127.94234822  .09725640  24997-5  14807-2 0  9991","2 58324  97.3822 212.2359 0015651 248.3526 111.6104 16.33846744 83581"
"3.0","GENERATED VIA SPACE-TRACK.ORG API","2025-05-09T02:46:56","18 SPCS","OBJECT H","2024-039H","EARTH","TEME","UTC","SGP4","2025-05-07T23:47:47.641632","16.39206788","0.00092420","97.3962","104.6898","210.9051","149.1705","0","U","59058","999","6689","0.00082448000000","0.09389883","0.0000026089000","6546.050","87.847","173.965","161.866","UNKNOWN","SMALL","TBD","2024-02-29","VOSTO","2025-05-13","4723128","287099094","0 OBJECT H","1 59058U 24039H   25127.99152363  .09389883  26089-5  82448-3 0  9997","2 59058  97.3962 104.6898 0009242 210.9051 149.1705 16.39206788 66892"
"3.0","GENERATED VIA SPACE-TRACK.ORG API","2025-05-08T03:16:16","18 SPCS","STARLINK-1838","2020-088H","EARTH","TEME","UTC","SGP4","2025-05-08T02:42:46.554912","16.45991982","0.00041230","53.0081","164.1277","289.2946","169.2144","0","U","47129","999","24701","0.00047395000000","0.19452873","0.0000125530000","6528.048","87.485","152.605","147.222","PAYLOAD","LARGE","US","2020-11-25","AFETR","2025-05-08","4722207","287051864","0 STARLINK-1838","1 47129U 20088H   25128.11303883  .19452873  12553-4  47395-3 0  9996","2 47129  53.0081 164.1277 0004123 289.2946 169.2144 16.45991982247015"
"3.0","GENERATED VIA SPACE-TRACK.ORG API","2025-05-08T07:26:25","18 SPCS","STARLINK-31043","2023-200C","EARTH","TEME","UTC","SGP4","2025-05-08T02:55:07.351968","16.23898446","0.00083430","42.9948","18.6216","260.0948","224.5115","0","U","58591","999","7779","0.00532180000000","0.14899963","0.0000089621000","6587.125","88.675","214.486","203.495","PAYLOAD","LARGE","US","2023-12-19","AFETR","2025-05-08","4722551","287060296","0 STARLINK-31043","1 58591U 23200C   25128.12161287  .14899963  89621-5  53218-2 0  9992","2 58591  42.9948  18.6216 0008343 260.0948 224.5115 16.23898446 77798"
"3.0","GENERATED VIA SPACE-TRACK.ORG API","2025-05-09T02:46:56","18 SPCS","CZ-6A DEB","2022-151GR","EARTH","TEME","UTC","SGP4","2025-05-08T03:45:05.550336","16.18583971","0.00239160","98.4882","203.7993","277.9487","81.9083","0","U","54465","999","13360","0.00849790000000","0.15196819","0.0000031185000","6601.536","88.967","239.190","207.613","DEBRIS","SMALL","PRC","2022-11-11","TSC","2025-05-13","4723128","287096225","0 CZ-6A DEB","1 54465U 22151GR  25128.15631424  .15196819  31185-5  84979-2 0  9991","2 54465  98.4882 203.7993 0023916 277.9487  81.9083 16.18583971133604"
"3.0","GENERATED VIA SPACE-TRACK.ORG API","2025-05-08T05:06:17","18 SPCS","STARLINK-1694","2020-070N","EARTH","TEME","UTC","SGP4","2025-05-08T04:31:31.557216","16.48982657","0.00053630","53.0259","31.5728","355.1696","129.2360","0","U","46544","999","25453","0.00033642000000","0.25216979","0.0000127020000","6520.153","87.327","145.515","138.521","PAYLOAD","LARGE","US","2020-10-06","AFETR","2025-05-08","4722210","287051867","0 STARLINK-1694","1 46544U 20070N   25128.18855969  .25216979  12702-4  33642-3 0  9999","2 46544  53.0259  31.5728 0005363 355.1696 129.2360 16.48982657254535"
"3.0","GENERATED VIA SPACE-TRACK.ORG API","2025-05-08T07:36:25","18 SPCS","STARLINK-1610","2020-057AY","EARTH","TEME","UTC","SGP4","2025-05-08T06:20:03.494112","16.45378281","0.00065840","53.0127","171.6975","276.5108","130.4158","0","U","46163","999","26175","0.00049294000000","0.18812154","0.0000125260000","6529.672","87.518","155.836","147.237","PAYLOAD","LARGE","US","2020-08-18","AFETR","2025-05-08","4722552","287060297","0 STARLINK-1610","1 46163U 20057AY  25128.26392933  .18812154  12526-4  49294-3 0  9990","2 46163  53.0127 171.6975 0006584 276.5108 130.4158 16.45378281261756"
"3.0","GENERATED VIA SPACE-TRACK.ORG API","2025-05-08T11:56:17","18 SPCS","STARLINK-4418","2022-105AG","EARTH","TEME","UTC","SGP4","2025-05-08T08:50:15.160992","16.58039940","0.00128210","97.6163","18.3673","240.7828","232.5157","0","U","53678","999","14820","0.00020760000000","0.55476163","0.0000028914000","6496.386","86.850","126.580","109.922","PAYLOAD","LARGE","US","2022-08-31","AFWTR","2025-05-08","4722559","287060304","0 STARLINK-4418","1 53678U 22105AG  25128.36823103  .55476163  28914-5  20760-3 0  9997","2 53678  97.6163  18.3673 0012821 240.7828 232.5157 16.58039940148201"
"3.0","GENERATED VIA SPACE-TRACK.ORG API","2025-05-08T15:36:32","18 SPCS","LEMUR 2 THE-CLEANER","2023-174CF","EARTH","TEME","UTC","SGP4","2025-05-08T09:24:49.598208","16.47017549","0.00127910","97.3787","217.0349","247.7241","176.9032","0","U","58333","999","8395","0.00046110000000","0.26565867","0.0000026102000","6525.338","87.431","155.550","138.857","PAYLOAD","SMALL","US","2023-11-11","AFWTR","2025-05-13","4722831","287066516","0 LEMUR 2 THE-CLEANER","1 58333U 23174CF  25128.39224072  .26565867  26102-5  46110-3 0  9992","2 58333  97.3787 217.0349 0012791 247.7241 176.9032 16.47017549 83955"
"3.0","GENERATED VIA SPACE-TRACK.ORG API","2025-05-09T02:46:56","18 SPCS","OBJECT E","2024-039E","EARTH","TEME","UTC","SGP4","2025-05-08T10:09:06.488928","16.43188711","0.00097260","97.3945","105.1751","224.1785","135.8740","0","U","59055","999","6696","0.00044338000000","0.11506220","0.0000026303000","6535.471","87.634","163.692","150.979","UNKNOWN","SMALL","TBD","2024-02-29","VOSTO","2025-05-13","4723128","287099593","0 OBJECT E","1 59055U 24039E   25128.42299177  .11506220  26303-5  44338-3 0  9992","2 59055  97.3945 105.1751 0009726 224.1785 135.8740 16.43188711 66961"
"3.0","GENERATED VIA SPACE-TRACK.ORG API","2026-06-23T17:26:45","18 SPCS","TBA - TO BE ASSIGNED","UNKNOWN","EARTH","TEME","UTC","SGP4","2025-05-08T13:11:55.437216","13.85152494","0.00996500","100.3372","62.2420","230.0298","129.2071","0","U","89218","999","56342","0.00277350000000","0.00003217","0.0000000000000","7323.805","103.960","1018.652","872.688","UNKNOWN","","","","","","5257641","331014914","0 TBA - TO BE ASSIGNED","1 89218U          25128.54994719 +.00003217 +00000+0 +27735-2 0  9992","2 89218 100.3372  62.2420 0099650 230.0298 129.2071 13.85152494563429"
"3.0","GENERATED VIA SPACE-TRACK.ORG API","2025-05-09T02:46:56","18 SPCS","AYRIS-1","2023-084BJ","EARTH","TEME","UTC","SGP4","2025-05-08T19:14:05.845056","16.44145250","0.00109430","97.5281","268.6279","246.8767","113.1382","0","U","56988","999","10656","0.00040001000000","0.13050227","0.0000026838000","6532.936","87.584","161.950","147.652","PAYLOAD","SMALL","ISRA","2023-06-12","AFWTR","2025-05-13","4723128","287097703","0 AYRIS-1","1 56988U 23084BJ  25128.80145654  .13050227  26838-5  40001-3 0  9994","2 56988  97.5281 268.6279 0010943 246.8767 113.1382 16.44145250106566"
"3.0","GENERATED VIA SPACE-TRACK.ORG API","2025-05-09T17:15:02","18 SPCS","LEMUR 2 ZO","2018-111L","EARTH","TEME","UTC","SGP4","2025-05-09T04:54:16.729056","16.32718538","0.00090220","97.5672","60.9746","213.8339","146.2381","0","U","43886","999","35002","0.00115940000000","0.06597359","0.0000026444000","6563.381","88.196","191.168","179.325","PAYLOAD","SMALL","US","2018-12-27","VOSTO","2025-05-13","4723738","287134585","0 LEMUR 2 ZO","1 43886U 18111L   25129.20436029  .06597359  26444-5  11594-2 0  9997","2 43886  97.5672  60.9746 0009022 213.8339 146.2381 16.32718538350020"
"3.0","GENERATED VIA SPACE-TRACK.ORG API","2026-06-23T03:40:42","18 SPCS","BREEZE-M DEB","2006-006CF","EARTH","TEME","UTC","SGP4","2025-05-09T09:37:33.669696","5.09276881","0.50623379","51.7408","137.9469","204.9919","340.5415","0","U","35538","999","22290","0.00884377490000","0.00001591","0.0000000000000","14270.281","282.754","15116.245","668.048","DEBRIS","MEDIUM","CIS","2006-02-28","TTMTR","","5257616","330957780","0 BREEZE-M DEB","1 35538U 06006CF  25129.40108414  .00001591  00000-0  88438-2 0  9996","2 35538  51.7408 137.9469 5062338 204.9919 340.5415  5.09276881222904"
"3.0","GENERATED VIA SPACE-TRACK.ORG API","2025-05-10T02:32:27","18 SPCS","OBJECT D","2024-039D","EARTH","TEME","UTC","SGP4","2025-05-09T15:44:03.074496","16.46484924","0.00096730","97.3959","106.4349","220.6269","139.4313","0","U","59054","999","6716","0.00028919000000","0.14262333","0.0000026739000","6526.745","87.459","154.924","142.297","UNKNOWN","SMALL","TBD","2024-02-29","VOSTO","2025-05-13","4723972","287179236","0 OBJECT D","1 59054U 24039D   25129.65559114  .14262333  26739-5  28919-3 0  9994","2 59054  97.3959 106.4349 0009673 220.6269 139.4313 16.46484924 67168"
